{
  "type": "FeatureCollection",
  "features": [
    {
      "type": "Feature",
      "properties": {
        "norad_id": 43058,
        "name": "GSAT0218 (GALILEO 22)",
        "group": "gnss",
        "lat": 54.22991030491362,
        "lon": -58.005015271834665,
        "alt_km": 23221.93111163234,
        "timestamp": "2025-12-08T15:42:50.033651+00:00",
        "meta_object_name": "GSAT0218 (GALILEO 22)",
        "meta_object_id": "2017-079D",
        "meta_epoch": "2025-12-06T18:17:46.482720",
        "meta_mean_motion": 1.70473862,
        "meta_eccentricity": 0.00028449,
        "meta_inclination": 55.1307,
        "meta_ra_of_asc_node": 226.7982,
        "meta_arg_of_pericenter": 305.5375,
        "meta_mean_anomaly": 54.5328,
        "meta_ephemeris_type": 0,
        "meta_classification_type": "U",
        "meta_norad_cat_id": 43058,
        "meta_element_set_no": 999,
        "meta_rev_at_epoch": 4973,
        "meta_bstar": 0,
        "meta_mean_motion_dot": 2.9e-07,
        "meta_mean_motion_ddot": 0,
        "tle_line1": "1 43058U 17079D   25340.76234355  .00000029  00000+0  00000+0 0  9992",
        "tle_line2": "2 43058  55.1307 226.7982 0002844 305.5375  54.5328  1.70473862 49733"
      },
      "geometry": {
        "type": "Point",
        "coordinates": [
          -58.005015271834665,
          54.22991030491362
        ]
      }
    },
    {
      "type": "Feature",
      "properties": {
        "norad_id": 43107,
        "name": "BEIDOU-3 M7 (C27)",
        "group": "gnss",
        "lat": -39.912610027427064,
        "lon": -87.69308291238022,
        "alt_km": 21536.58410192537,
        "timestamp": "2025-12-08T15:42:50.033662+00:00",
        "meta_object_name": "BEIDOU-3 M7 (C27)",
        "meta_object_id": "2018-003A",
        "meta_epoch": "2025-12-08T04:41:21.323616",
        "meta_mean_motion": 1.86232307,
        "meta_eccentricity": 0.00027231,
        "meta_inclination": 54.5008,
        "meta_ra_of_asc_node": 308.973,
        "meta_arg_of_pericenter": 69.0178,
        "meta_mean_anomaly": 290.9986,
        "meta_ephemeris_type": 0,
        "meta_classification_type": "U",
        "meta_norad_cat_id": 43107,
        "meta_element_set_no": 999,
        "meta_rev_at_epoch": 5379,
        "meta_bstar": 0,
        "meta_mean_motion_dot": -7.3e-07,
        "meta_mean_motion_ddot": 0,
        "tle_line1": "1 43107U 18003A   25342.19538569 -.00000073  00000+0  00000+0 0  9998",
        "tle_line2": "2 43107  54.5008 308.9730 0002723  69.0178 290.9986  1.86232307 53793"
      },
      "geometry": {
        "type": "Point",
        "coordinates": [
          -87.69308291238022,
          -39.912610027427064
        ]
      }
    },
    {
      "type": "Feature",
      "properties": {
        "norad_id": 43108,
        "name": "BEIDOU-3 M8 (C28)",
        "group": "gnss",
        "lat": -12.212174685246776,
        "lon": -59.96306188131635,
        "alt_km": 21525.261061821016,
        "timestamp": "2025-12-08T15:42:50.033677+00:00",
        "meta_object_name": "BEIDOU-3 M8 (C28)",
        "meta_object_id": "2018-003B",
        "meta_epoch": "2025-12-07T14:28:44.838336",
        "meta_mean_motion": 1.86230783,
        "meta_eccentricity": 0.00047344,
        "meta_inclination": 54.4942,
        "meta_ra_of_asc_node": 308.9763,
        "meta_arg_of_pericenter": 275.286,
        "meta_mean_anomaly": 84.6457,
        "meta_ephemeris_type": 0,
        "meta_classification_type": "U",
        "meta_norad_cat_id": 43108,
        "meta_element_set_no": 999,
        "meta_rev_at_epoch": 5379,
        "meta_bstar": 0,
        "meta_mean_motion_dot": -7.2e-07,
        "meta_mean_motion_ddot": 0,
        "tle_line1": "1 43108U 18003B   25341.60329674 -.00000072  00000+0  00000+0 0  9998",
        "tle_line2": "2 43108  54.4942 308.9763 0004734 275.2860  84.6457  1.86230783 53796"
      },
      "geometry": {
        "type": "Point",
        "coordinates": [
          -59.96306188131635,
          -12.212174685246776
        ]
      }
    },
    {
      "type": "Feature",
      "properties": {
        "norad_id": 43207,
        "name": "BEIDOU-3 M4 (C22)",
        "group": "gnss",
        "lat": 38.78116929444344,
        "lon": 101.572060717072,
        "alt_km": 21513.902322855203,
        "timestamp": "2025-12-08T15:42:50.033690+00:00",
        "meta_object_name": "BEIDOU-3 M4 (C22)",
        "meta_object_id": "2018-018A",
        "meta_epoch": "2025-12-02T03:19:43.852800",
        "meta_mean_motion": 1.86230706,
        "meta_eccentricity": 0.00040749,
        "meta_inclination": 56.4768,
        "meta_ra_of_asc_node": 69.6557,
        "meta_arg_of_pericenter": 15.1369,
        "meta_mean_anomaly": 344.8773,
        "meta_ephemeris_type": 0,
        "meta_classification_type": "U",
        "meta_norad_cat_id": 43207,
        "meta_element_set_no": 999,
        "meta_rev_at_epoch": 5307,
        "meta_bstar": 0,
        "meta_mean_motion_dot": -4.5e-07,
        "meta_mean_motion_ddot": 0,
        "tle_line1": "1 43207U 18018A   25336.13870200 -.00000045  00000+0  00000+0 0  9992",
        "tle_line2": "2 43207  56.4768  69.6557 0004074  15.1369 344.8773  1.86230706 53076"
      },
      "geometry": {
        "type": "Point",
        "coordinates": [
          101.572060717072,
          38.78116929444344
        ]
      }
    },
    {
      "type": "Feature",
      "properties": {
        "norad_id": 43208,
        "name": "BEIDOU-3 M3 (C21)",
        "group": "gnss",
        "lat": 3.370092033842838,
        "lon": 71.68710046323893,
        "alt_km": 21515.848536588008,
        "timestamp": "2025-12-08T15:42:50.033701+00:00",
        "meta_object_name": "BEIDOU-3 M3 (C21)",
        "meta_object_id": "2018-018B",
        "meta_epoch": "2025-12-03T06:41:57.693408",
        "meta_mean_motion": 1.86230862,
        "meta_eccentricity": 0.0006282,
        "meta_inclination": 56.4772,
        "meta_ra_of_asc_node": 69.6218,
        "meta_arg_of_pericenter": 317.5873,
        "meta_mean_anomaly": 42.3668,
        "meta_ephemeris_type": 0,
        "meta_classification_type": "U",
        "meta_norad_cat_id": 43208,
        "meta_element_set_no": 999,
        "meta_rev_at_epoch": 5309,
        "meta_bstar": 0,
        "meta_mean_motion_dot": -4.9e-07,
        "meta_mean_motion_ddot": 0,
        "tle_line1": "1 43208U 18018B   25337.27913997 -.00000049  00000+0  00000+0 0  9994",
        "tle_line2": "2 43208  56.4772  69.6218 0006282 317.5873  42.3668  1.86230862 53096"
      },
      "geometry": {
        "type": "Point",
        "coordinates": [
          71.68710046323893,
          3.370092033842838
        ]
      }
    },
    {
      "type": "Feature",
      "properties": {
        "norad_id": 43245,
        "name": "BEIDOU-3 M9 (C29)",
        "group": "gnss",
        "lat": -30.876179381066308,
        "lon": 151.96248669795455,
        "alt_km": 21529.84327866195,
        "timestamp": "2025-12-08T15:42:50.033712+00:00",
        "meta_object_name": "BEIDOU-3 M9 (C29)",
        "meta_object_id": "2018-029A",
        "meta_epoch": "2025-12-07T06:05:41.943552",
        "meta_mean_motion": 1.86227905,
        "meta_eccentricity": 0.00016267,
        "meta_inclination": 54.3707,
        "meta_ra_of_asc_node": 306.6586,
        "meta_arg_of_pericenter": 277.0016,
        "meta_mean_anomaly": 82.965,
        "meta_ephemeris_type": 0,
        "meta_classification_type": "U",
        "meta_norad_cat_id": 43245,
        "meta_element_set_no": 999,
        "meta_rev_at_epoch": 5232,
        "meta_bstar": 0,
        "meta_mean_motion_dot": -7e-07,
        "meta_mean_motion_ddot": 0,
        "tle_line1": "1 43245U 18029A   25341.25395768 -.00000070  00000+0  00000+0 0  9994",
        "tle_line2": "2 43245  54.3707 306.6586 0001626 277.0016  82.9650  1.86227905 52320"
      },
      "geometry": {
        "type": "Point",
        "coordinates": [
          151.96248669795455,
          -30.876179381066308
        ]
      }
    },
    {
      "type": "Feature",
      "properties": {
        "norad_id": 43246,
        "name": "BEIDOU-3 M10 (C30)",
        "group": "gnss",
        "lat": -53.69495889121255,
        "lon": -156.08263962815244,
        "alt_km": 21535.59583528316,
        "timestamp": "2025-12-08T15:42:50.033724+00:00",
        "meta_object_name": "BEIDOU-3 M10 (C30)",
        "meta_object_id": "2018-029B",
        "meta_epoch": "2025-12-07T04:32:29.911776",
        "meta_mean_motion": 1.86228892,
        "meta_eccentricity": 0.00040611,
        "meta_inclination": 54.3683,
        "meta_ra_of_asc_node": 306.6886,
        "meta_arg_of_pericenter": 0.524,
        "meta_mean_anomaly": 359.4613,
        "meta_ephemeris_type": 0,
        "meta_classification_type": "U",
        "meta_norad_cat_id": 43246,
        "meta_element_set_no": 999,
        "meta_rev_at_epoch": 5230,
        "meta_bstar": 0,
        "meta_mean_motion_dot": -7e-07,
        "meta_mean_motion_ddot": 0,
        "tle_line1": "1 43246U 18029B   25341.18923509 -.00000070  00000+0  00000+0 0  9997",
        "tle_line2": "2 43246  54.3683 306.6886 0004061   0.5240 359.4613  1.86228892 52306"
      },
      "geometry": {
        "type": "Point",
        "coordinates": [
          -156.08263962815244,
          -53.69495889121255
        ]
      }
    }
  ]
}